NORAD_CAT_ID,OBJECT_NAME,OBJECT_TYPE,EPOCH,MEAN_MOTION,ECCENTRICITY,INCLINATION,RA_OF_ASC_NODE,ARG_OF_PERICENTER,MEAN_ANOMALY,BSTAR,MEAN_MOTION_DOT,MEAN_MOTION_DDOT,TLE_LINE0,TLE_LINE1,TLE_LINE2,SEMIMAJOR_AXIS,PERIOD,APOGEE,PERIGEE,DECAYED
53867.0,STARLINK-4793,PAYLOAD,2024-07-17 23:14:25,15.08837279,0.0001264,53.2163,86.4332,79.3609,280.7526,0.0003058,4.582e-05,0.0,0 STARLINK-4793,1 53867U 22114BB  24199.96834539  .00004582  00000-0  30580-3 0  9999,2 53867  53.2163  86.4332 0001264  79.3609 280.7526 15.08837279102715,6917.889,95.438,540.628,538.879,0.0
53867.0,STARLINK-4793,PAYLOAD,2024-07-18 19:54:26,15.08832876,0.0001224,53.2163,82.5683,78.4205,281.6925,0.00013706,1.894e-05,0.0,0 STARLINK-4793,1 53867U 22114BB  24200.82947115  .00001894  00000-0  13706-3 0  9996,2 53867  53.2163  82.5683 0001224  78.4205 281.6925 15.08832876102305,6917.902,95.438,540.614,538.92,0.0
53867.0,STARLINK-4793,PAYLOAD,2024-07-18 21:29:49,15.08834123,0.0001288,53.2166,82.2741,82.6696,277.4443,9.9133e-05,1.29e-05,0.0,0 STARLINK-4793,1 53867U 22114BB  24200.89571164  .00001290  00000-0  99133-4 0  9999,2 53867  53.2166  82.2741 0001288  82.6696 277.4443 15.08834123102856,6917.898,95.438,540.654,538.872,0.0
53867.0,STARLINK-4793,PAYLOAD,2024-07-19 08:37:30,15.08852697,0.0001233,53.2166,80.194,82.604,277.5092,0.00015809,2.23e-05,0.0,0 STARLINK-4793,1 53867U 22114BB  24201.35938168  .00002230  00000-0  15809-3 0  9994,2 53867  53.2166  80.1940 0001233  82.6040 277.5092 15.08852697102382,6917.842,95.437,540.56,538.854,0.0
53867.0,STARLINK-4793,PAYLOAD,2024-07-19 21:20:36,15.08828326,0.0001397,53.2166,77.8139,91.0857,269.0295,4.5033e-05,4.29e-06,0.0,0 STARLINK-4793,1 53867U 22114BB  24201.88931658  .00000429  00000-0  45033-4 0  9990,2 53867  53.2166  77.8139 0001397  91.0857 269.0295 15.08828326102468,6917.916,95.438,540.748,538.815,0.0
53867.0,STARLINK-4793,PAYLOAD,2024-07-19 22:56:00,15.08831535,0.0001431,53.217,77.5219,102.7507,257.3645,7.9175e-05,9.72e-06,0.0,0 STARLINK-4793,1 53867U 22114BB  24201.95555562  .00000972  00000-0  79175-4 0  9991,2 53867  53.2170  77.5219 0001431 102.7507 257.3645 15.08831535103017,6917.906,95.438,540.761,538.781,0.0
53867.0,STARLINK-4793,PAYLOAD,2024-07-20 00:31:22,15.08840731,0.0001241,53.2166,77.2186,81.7478,278.3655,0.00023529,3.459e-05,0.0,0 STARLINK-4793,1 53867U 22114BB  24202.02179214  .00003459  00000-0  23529-3 0  9990,2 53867  53.2166  77.2186 0001241  81.7478 278.3655 15.08840731102486,6917.878,95.438,540.602,538.885,0.0
53867.0,STARLINK-4793,PAYLOAD,2024-07-20 08:28:17,15.08855591,0.0001139,53.2159,75.7304,77.7534,282.3586,0.00043301,6.613e-05,0.0,0 STARLINK-4793,1 53867U 22114BB  24202.35298514  .00006613  00000-0  43301-3 0  9996,2 53867  53.2159  75.7304 0001139  77.7534 282.3586 15.08855591102531,6917.833,95.437,540.486,538.91,0.0
53867.0,STARLINK-4793,PAYLOAD,2024-07-20 21:11:23,15.08832223,0.0001197,53.2157,73.3549,96.4973,263.6155,-0.00010263,-1.92e-05,0.0,0 STARLINK-4793,1 53867U 22114BB  24202.88291443 -.00001920  00000-0 -10263-3 0  9997,2 53867  53.2157  73.3549 0001197  96.4973 263.6155 15.08832223102613,6917.904,95.438,540.597,538.941,0.0
53867.0,STARLINK-4793,PAYLOAD,2024-07-20 22:46:46,15.08837043,0.0001335,53.2169,73.0561,89.9849,270.1296,6.8755e-05,8.06e-06,0.0,0 STARLINK-4793,1 53867U 22114BB  24202.94915452  .00000806  00000-0  68755-4 0  9997,2 53867  53.2169  73.0561 0001335  89.9849 270.1296 15.08837043103165,6917.889,95.438,540.678,538.831,0.0
53867.0,STARLINK-4793,PAYLOAD,2024-07-21 00:22:09,15.08841773,0.0001164,53.2157,72.7593,101.6874,258.4248,0.00017956,2.571e-05,0.0,0 STARLINK-4793,1 53867U 22114BB  24203.01539190  .00002571  00000-0  17956-3 0  9994,2 53867  53.2157  72.7593 0001164 101.6874 258.4248 15.08841773102635,6917.875,95.437,540.545,538.935,0.0
53867.0,STARLINK-4793,PAYLOAD,2024-07-21 21:02:10,15.0884165,0.0001046,53.2151,68.8906,81.944,278.1671,0.00016566,2.35e-05,0.0,0 STARLINK-4793,1 53867U 22114BB  24203.87651508  .00002350  00000-0  16566-3 0  9997,2 53867  53.2151  68.8906 0001046  81.9440 278.1671 15.08841650102768,6917.875,95.437,540.464,539.017,0.0
53867.0,STARLINK-4793,PAYLOAD,2024-07-22 14:31:25,15.08845457,0.0001199,53.2159,65.6192,88.6849,271.4281,0.00041544,6.331e-05,0.0,0 STARLINK-4793,1 53867U 22114BB  24204.60515600  .00006331  00000-0  41544-3 0  9998,2 53867  53.2159  65.6192 0001199  88.6849 271.4281 15.08845457103419,6917.864,95.437,540.558,538.899,0.0
53867.0,STARLINK-4793,PAYLOAD,2024-07-22 22:28:20,15.08853354,0.0001112,53.2156,64.1338,89.0692,271.0427,0.00039994,6.085e-05,0.0,0 STARLINK-4793,1 53867U 22114BB  24204.93635092  .00006085  00000-0  39994-3 0  9994,2 53867  53.2156  64.1338 0001112  89.0692 271.0427 15.08853354103466,6917.84,95.437,540.474,538.935,0.0
53867.0,STARLINK-4793,PAYLOAD,2024-07-23 14:22:12,15.08845042,0.0002088,53.2145,61.1602,91.9284,268.1948,0.00013447,1.853e-05,0.0,0 STARLINK-4793,1 53867U 22114BB  24205.59875284  .00001853  00000-0  13447-3 0  9999,2 53867  53.2145  61.1602 0002088  91.9284 268.1948 15.08845042103568,6917.865,95.437,541.174,538.286,0.0
53867.0,STARLINK-4793,PAYLOAD,2024-07-24 14:12:59,15.0884066,0.0001733,53.2148,56.6985,93.816,266.303,0.00012459,1.695e-05,0.0,0 STARLINK-4793,1 53867U 22114BB  24206.59235573  .00001695  00000-0  12459-3 0  9997,2 53867  53.2148  56.6985 0001733  93.8160 266.3030 15.08840660103714,6917.878,95.438,540.942,538.545,0.0
53867.0,STARLINK-4793,PAYLOAD,2024-07-24 23:45:18,15.08843664,0.0001925,53.2144,54.9144,92.3748,267.7464,0.00030627,4.59e-05,0.0,0 STARLINK-4793,1 53867U 22114BB  24206.98979665  .00004590  00000-0  30627-3 0  9991,2 53867  53.2144  54.9144 0001925  92.3748 267.7464 15.08843664103776,6917.869,95.437,541.066,538.402,0.0
53867.0,STARLINK-4793,PAYLOAD,2024-07-25 23:36:05,15.08842155,0.0001243,53.2158,50.4531,97.4923,262.621,0.00015614,2.198e-05,0.0,0 STARLINK-4793,1 53867U 22114BB  24207.98339810  .00002198  00000-0  15614-3 0  9995,2 53867  53.2158  50.4531 0001243  97.4923 262.6210 15.08842155103380,6917.874,95.437,540.599,538.879,0.0
53867.0,STARLINK-4793,PAYLOAD,2024-07-26 20:16:06,15.08847796,9.36e-05,53.2155,46.588,67.4474,292.6617,0.00015521,2.184e-05,0.0,0 STARLINK-4793,1 53867U 22114BB  24208.84451389  .00002184  00000-0  15521-3 0  9999,2 53867  53.2155  46.5880 0000936  67.4474 292.6617 15.08847796104051,6917.857,95.437,540.369,539.074,0.0
53867.0,STARLINK-4793,PAYLOAD,2024-07-26 23:26:52,15.08851238,0.0001186,53.2166,45.9931,75.5696,284.5428,0.00023009,3.377e-05,0.0,0 STARLINK-4793,1 53867U 22114BB  24208.97699226  .00003377  00000-0  23009-3 0  9992,2 53867  53.2166  45.9931 0001186  75.5696 284.5428 15.08851238104075,6917.846,95.437,540.531,538.891,0.0
53867.0,STARLINK-4793,PAYLOAD,2024-07-27 21:42:16,15.08835039,0.0001121,53.2182,41.8302,76.7765,283.3352,6.8161e-06,-1.79e-06,0.0,0 STARLINK-4793,1 53867U 22114BB  24209.90436111 -.00000179  00000-0  68161-5 0  9996,2 53867  53.2182  41.8302 0001121  76.7765 283.3352 15.08835039104219,6917.896,95.438,540.536,538.985,0.0
53867.0,STARLINK-4793,PAYLOAD,2024-07-28 05:39:12,15.08834555,0.0001094,53.2178,40.3432,76.4271,283.6843,7.5079e-06,-1.68e-06,0.0,0 STARLINK-4793,1 53867U 22114BB  24210.23556254 -.00000168  00000-0  75079-5 0  9999,2 53867  53.2178  40.3432 0001094  76.4271 283.6843 15.08834555103725,6917.897,95.438,540.519,539.005,0.0
53867.0,STARLINK-4793,PAYLOAD,2024-07-28 19:57:40,15.08844636,0.0001104,53.2173,37.6691,82.5814,277.5303,-0.00012598,-2.292e-05,0.0,0 STARLINK-4793,1 53867U 22114BB  24210.83172127 -.00002292  00000-0 -12598-3 0  9994,2 53867  53.2173  37.6691 0001104  82.5814 277.5303 15.08844636104353,6917.866,95.437,540.495,538.967,0.0
53867.0,STARLINK-4793,PAYLOAD,2024-07-29 11:51:32,15.08847134,0.0001393,53.2176,34.6954,81.8295,278.2855,0.00036016,5.45e-05,0.0,0 STARLINK-4793,1 53867U 22114BB  24211.49412396  .00005450  00000-0  36016-3 0  9990,2 53867  53.2176  34.6954 0001393  81.8295 278.2855 15.08847134103917,6917.859,95.437,540.687,538.76,0.0
53867.0,STARLINK-4793,PAYLOAD,2024-07-29 19:48:27,15.08848643,0.000129,53.2168,33.2081,82.1295,277.9843,0.00036439,5.517e-05,0.0,0 STARLINK-4793,1 53867U 22114BB  24211.82532322  .00005517  00000-0  36439-3 0  9992,2 53867  53.2168  33.2081 0001290  82.1295 277.9843 15.08848643104509,6917.854,95.437,540.611,538.827,0.0
53867.0,STARLINK-4793,PAYLOAD,2024-07-30 11:42:19,15.0884901,0.0001925,53.2166,30.2342,83.6319,276.4892,0.00028724,4.287e-05,0.0,0 STARLINK-4793,1 53867U 22114BB  24212.48772360  .00004287  00000-0  28724-3 0  9994,2 53867  53.2166  30.2342 0001925  83.6319 276.4892 15.08849010104060,6917.853,95.437,541.05,538.386,0.0
53867.0,STARLINK-4793,PAYLOAD,2024-07-30 18:03:51,15.08855081,0.0001625,53.216,29.045,83.9208,276.197,0.00040058,6.096e-05,0.0,0 STARLINK-4793,1 53867U 22114BB  24212.75268017  .00006096  00000-0  40058-3 0  9997,2 53867  53.2160  29.0450 0001625  83.9208 276.1970 15.08855081104640,6917.834,95.437,540.823,538.575,0.0
53867.0,STARLINK-4793,PAYLOAD,2024-07-31 05:11:33,15.08852871,0.000156,53.2154,26.963,86.8708,273.2463,0.00045486,6.961e-05,0.0,0 STARLINK-4793,1 53867U 22114BB  24213.21635859  .00006961  00000-0  45486-3 0  9992,2 53867  53.2154  26.9630 0001560  86.8708 273.2463 15.08852871104711,6917.841,95.437,540.785,538.627,0.0
53867.0,STARLINK-4793,PAYLOAD,2024-07-31 17:54:38,15.08834596,0.0001315,53.2166,24.5832,98.8617,261.2524,5.8444e-05,6.42e-06,0.0,0 STARLINK-4793,1 53867U 22114BB  24213.74628381  .00000642  00000-0  58444-4 0  9991,2 53867  53.2166  24.5832 0001315  98.8617 261.2524 15.08834596104250,6917.897,95.438,540.672,538.852,0.0
53867.0,STARLINK-4793,PAYLOAD,2024-08-01 20:56:12,15.08857148,0.0001409,53.2179,19.5276,102.1218,257.9932,0.00081391,0.00012695,0.0,0 STARLINK-4793,1 53867U 22114BB  24214.87236127  .00012695  00000-0  81391-3 0  9996,2 53867  53.2179  19.5276 0001409 102.1218 257.9932 15.08857148104422,6917.828,95.436,540.668,538.718,0.0
